#dP2023  3 21  0  0  0.00000000      96 __u+U ITR00 FIT  IAC
## 2254 172800.00000000   900.00000000 60024 0.0000000000000
+  120   C06C07C08C09C10C11C12C13C14C16C19C20C21C22C23C24C25
+        C26C27C28C29C30C32C33C34C35C36C37C38C39C40C41C42C43
+        C44C45C46E01E02E03E04E05E07E08E09E10E11E12E13E14E15
+        E18E19E21E24E25E26E27E30E31E33E34E36G01G02G03G04G05
+        G06G07G08G09G10G11G12G13G14G15G16G17G18G19G20G21G22
+        G23G24G25G26G27G28G29G30G31G32J02J03J04R01R02R03R04
+        R05R07R08R09R11R12R13R14R15R16R17R18R19R20R21R22R24
+        R25  0  0  0  0  0  0  0  0  0  0  0  0  0  0  0  0
++         7  8  9  9  8  8  8  8  7  8  7  7  7  7  7  5  7
++         8  7  7  6  6  8  7  6  7  7  8  7 10  9  8  8  8
++         7  6  6  7  6  6  7  6  6  6  7  7  7  6  6  6  6
++         6  7  6  6  6  7  6  6  6  7  6  8  6  7  6  7  4
++         6  5  6  6  6  7  6  6  6  6  6  6  6  7  6  7  7
++         6  6  5  6  5  8  5  8  6  7  7  7  6  6  7  5  7
++         6  6  7  7  6  6  7  7  7  6  7  5  6  8  6  6  7
++         6  0  0  0  0  0  0  0  0  0  0  0  0  0  0  0  0
%c M  cc GPS ccc cccc cccc cccc cccc ccccc ccccc ccccc ccccc
%c cc cc ccc ccc cccc cccc cccc cccc ccccc ccccc ccccc ccccc
%f  0.0000000  0.000000000  0.00000000000  0.000000000000000
%f  0.0000000  0.000000000  0.00000000000  0.000000000000000
%i    0    0    0    0      0      0      0      0         0
%i    0    0    0    0      0      0      0      0         0
/* INFORMATION & ANALYSIS CENTER (IAC)      ULTRA-RAPID DATA
/* S/V CLOCKS ARE ALIGNED TO GNSS TIME                      
/* G:C1WC2W R:C1PC2P E:C1XC5X C:C2IC6I J:C1CC2S             
/* PCV:IGS20_2247 OL/AL:FES2004  NONE     YN ORB:CoN CLK:CoN
*  2023 03 21 20 30  0.00000000
PC06  -1907.814319  29690.451667  30002.831652   -196.580613
PC07 -17665.050009  29077.493047 -24962.031734    -54.252605
PC08 -11649.436584  40394.302101  -1485.143584    516.136836
PC09   5979.097878  34215.938086  24685.356479    855.944891
PC10  -9916.593561  29399.462388 -28449.841853    -14.514382
PC11   3380.697501 -16194.438386  22540.957605    718.726342
PC12  19091.132552  -2333.536264  20255.154898    520.991516
PC13  -6826.689041  41214.552085   4747.795172    234.807674
PC14  13261.485280 -18252.945470 -16361.338032     21.467970
PC16  -3886.787462  27984.255852  31609.298151    132.169935
PC19  -3192.058310  17517.310248  21524.692987   -896.775109
PC20 -20042.419146  16572.303797  10182.856791    667.712208
PC21  26084.447630  -5438.882213   8272.382887   -908.794058
PC22  16323.540924   8431.152927  21002.266131   -574.625026
PC23 -10586.014726 -19079.359848  17396.882521   -891.738346
PC24  12897.498006 -19783.893268 -14903.195452   -266.950615
PC25    261.202091 -27776.795176   2772.210287     91.774246
PC26  16396.914835  -2288.648320 -22484.434089    -95.126901
PC27 -23309.031332  -4702.713272 -14612.746804    113.949963
PC28 -21889.755391 -17270.021494   1129.176020     83.571985
PC29   7426.072923  20154.091167 -17826.882179     96.573915
PC30 -12075.408326  10894.125397 -22683.063440      0.770596
PC32 -26048.355801   5645.458178  -8271.004818   -594.771980
PC33   3155.978513 -17554.285349 -21446.341064   -871.100653
PC34  10977.396633 -11793.970336  22773.523293    131.589858
PC35  22058.017370  17001.894133  -2129.363205    660.371260
PC36  -1393.928992  27788.067563  -2086.345371   -550.160127
PC37 -16363.771765    277.435347  22608.912020   -799.476989
PC38 -15616.894530  37819.619108  -9843.375479     66.507758
PC39  -8712.826302  23865.106427  33728.415088     -2.259228
PC40 -24069.211801  23034.511095 -25993.772772    -18.176700
PC41 -15839.889462  -8779.420375 -21174.367674   -751.836114
PC42  20916.826729 -16128.837249  -8917.065349   -775.679098
PC43  -6494.858791 -20069.978948  18244.797598     12.871055
PC44  23607.865644   3989.662127  14352.236033     51.442981
PC45  10714.935144  18675.880589 -17745.830122    -75.088833
PC46 -12087.192782  21073.194075  13691.404801    -41.463938
PE01    931.087269  21528.619344 -20295.731107    -13.574931
PE02  -1325.498554 -21280.871540  20529.706923     27.690428
PE03 -12683.249567 -16536.889784 -21021.052723   -661.429108
PE04  27597.260987   8339.811997   6724.110454    -83.400566
PE05  10092.370643 -15202.182238 -23299.418611    -84.276259
PE07 -26709.329747   4900.521396  11799.231795    -31.605681
PE08 -27542.840353  -8355.712366  -6925.563358    -54.788207
PE09  26774.188320  -4751.199900 -11673.176171   -877.043245
PE10  18230.947909   5849.202602  22569.551130   -520.742984
PE11  14903.857270  -6027.742022  24845.326284   1329.225532
PE12  18483.589341  15745.088678  16946.289653   -467.333566
PE13 -15186.443190   5132.142881 -24879.850623    -17.894616
PE14   1730.697575  19691.136207 -22373.265328    174.860648
PE15 -18415.853307 -16022.938433 -16726.298489     -9.037484
PE18 -18934.850337 -15969.976344  12706.197169   -256.850634
PE19   9758.466433  16894.723984  22272.581235  -2953.685486
PE21 -14048.935781  25294.374870  -6238.436970   -518.830670
PE24  22442.116421 -14174.734863 -13146.993911  -1177.819684
PE25  14291.312963 -25243.188431   5912.785448   -601.766921
PE26  -2663.335784  23555.274320 -17726.773034     52.192262
PE27 -22286.908854  14937.774520  12484.931687 999999.999999
PE30 -16968.334224  -4821.182132  23750.959628    -29.343019
PE31  17317.790008   4096.430671 -23654.474527   -519.168582
PE33  10753.967778  27559.717617  -1230.435421   -448.534692
PE34 -10895.656254 -27500.411515   1071.921688    -36.097471
PE36   3121.749912 -22994.219838  18369.912737    -29.619613
PG01  15335.570351   1606.738101  21359.837208    200.537347
PG02 -14437.397661   3746.008739 -21344.808207   -612.612001
PG03  20340.880177  -8973.471719  14319.347900   -345.604361
PG04  25140.594662   -665.320025  -8707.202539     -1.782415
PG05 -14103.323071  -6421.609168 -21750.548454   -120.357318
PG06  -4587.644099 -25413.175086   6048.091529    582.865327
PG07  10151.906123 -13701.739438 -19794.670163    218.357751
PG08  25713.804893   6591.276504  -3566.828104   -114.040342
PG09  18322.574881  -9184.541207 -16989.342691   -196.073055
PG10  -8622.356741  22220.974941  11561.659551    -29.506579
PG11 -12333.235583 -22175.573328  -7897.572529   -137.376760
PG12 -20580.072963   5722.863844  15441.426615   -354.326439
PG13 -21215.880900 -13524.750196  -8991.608466    493.999047
PG14  11559.788072 -22132.660657   8856.681263      2.333986
PG15 -26228.961425  -3874.251205  -3651.605943     23.601977
PG16  11559.448724  10016.991979 -22029.099109   -514.043583
PG17   4714.578810 -14376.791927  22263.921080    706.684497
PG18  -7457.398100  17428.426022 -18541.032832   -189.648965
PG19  -6750.681593 -16093.286319  19876.714779    293.118010
PG20  -7197.431761 -15971.779597 -19984.982033    443.620195
PG21  18096.462576   9916.424767  17741.635152    154.333040
PG22  10041.737635  16350.762325  18878.612303    449.599012
PG23 -16549.829378  20671.007671     57.237505     11.921533
PG24 -17727.507256  -5316.865039  18841.698211   -120.923432
PG25 -19907.962291  15455.399013   7617.467218    429.516051
PG26   1560.314791  19750.333791 -17644.791509    241.980952
PG27  19351.647681  12904.446890 -13443.420040     76.031276
PG28   4118.235223  25066.347632   7738.328553     48.821521
PG29 -21496.621075   4756.169079 -14964.068231   -591.924877
PG30   1562.367216 -23297.898658 -12305.338747   -525.948237
PG31   7042.257168  25288.938830   1758.521576   -212.152063
PG32   -594.738393  15412.215908  21807.327608   -429.956905
PJ02 -34563.315696  24057.447885   7356.149308     -1.257511
PJ03 -22132.214710  19679.173279 -25431.093083      1.217926
PJ04 -27545.697333  31744.760755  10078.876446     94.152117
PR01  24792.596903  -5556.813808   2190.614115     25.201857
PR02  16811.205728 -11344.195052 -15463.095484    -23.096958
PR03  -1037.437684 -10922.676824 -22977.944691     74.591390
PR04 -17831.453960  -4301.801794 -17685.320108    180.277570
PR05 -24954.186943   4457.658174  -2715.960579    109.696966
PR07   2033.587849  10734.970323  23094.243436     52.224308
PR08  18023.818109   4246.982554  17621.815927    -69.997763
PR09  -9843.250790  22327.102137   7581.927937    110.412394
PR11   6931.489401  12474.981387 -21139.285374    -22.205366
PR12  12587.033895  -7701.106433 -20792.355798     25.834289
PR13  10538.477517 -21270.774540  -9361.102348    -33.181447
PR14   1741.680632 -23516.147007   9713.393722     24.470335
PR15  -7470.193269 -11444.388694  21550.709039     90.322197
PR16 -12376.463113   7476.466936  21025.528546     12.637634
PR17 -10118.023774 -19448.417741  13074.287030    614.416071
PR18 -18159.450226 -17578.034462  -3201.404296     72.603098
PR19 -17166.436701  -8245.702544 -16968.294368   -226.157235
PR20  -5011.389135   9791.423901 -23012.166965    -89.757242
PR21  11184.927438  19755.683284 -11614.871811   -382.067185
PR22  17830.738631  17791.023429   4119.929609     75.887889
PR24   4561.030935 -10724.257860  22706.690491    155.576603
PR25   8866.348941  19938.197500 -13195.234364     58.420902
EOF
